{"fetched_at":"2026-07-06T08:46:48.490Z","source":"https://celestrak.org/NORAD/elements/gp.php?GROUP=stations&FORMAT=JSON","constellation":"iss","records":[{"OBJECT_NAME":"ISS (ZARYA)","OBJECT_ID":"1998-067A","EPOCH":"2026-07-05T10:39:01.360800","CLASSIFICATION_TYPE":"U","MEAN_MOTION":15.48905966,"ECCENTRICITY":0.0006728,"INCLINATION":51.6303,"RA_OF_ASC_NODE":209.7275,"ARG_OF_PERICENTER":258.7638,"MEAN_ANOMALY":101.2595,"EPHEMERIS_TYPE":0,"NORAD_CAT_ID":25544,"ELEMENT_SET_NO":999,"REV_AT_EPOCH":57458,"BSTAR":0.00017013,"MEAN_MOTION_DOT":0.00008907,"MEAN_MOTION_DDOT":0}]}
